KUIPER-00074            
1 64821U 25151F   25328.35668345  .00005976  00000+0  81101-3 0  9995
2 64821  51.9019  36.3686 0012848 281.7281  78.2239 14.79959105 19845
KUIPER-00075            
1 64822U 25151G   25328.34333287  .00063863  00000+0  15696-2 0  9993
2 64822  51.8748  13.4311 0003802 247.3162 112.7424 15.40041103 20167
KUIPER-00076            
1 64823U 25151H   25328.35404411  .00005804  00000+0  78984-3 0  9994
2 64823  51.9014  38.8760 0004074 270.2080  89.8416 14.79926063 19813
KUIPER-00077            
1 64824U 25151J   25327.53820913 -.00002140  00000+0 -25158-3 0  9990
2 64824  51.9018  47.4837 0006136 225.1167 134.9298 14.79923970 19628
KUIPER-00078            
1 64825U 25151K   25328.38507043  .00004726  00000+0  64800-3 0  9998
2 64825  51.9013  41.2387 0007361 295.1753  64.8446 14.79962566 19782
KUIPER-00079            
1 64826U 25151L   25328.50002315 -.00013290  00000+0 -17070-2 0  9999
2 64826  51.8987  45.7380 0011510 251.5587 200.7390 14.80135832  3508
KUIPER-00080            
1 64827U 25151M   25328.37959485 -.00012140  00000+0 -15665-2 0  9995
2 64827  51.9005  46.2536 0005004 265.4415  94.5975 14.79917152 19714
KUIPER-00082            
1 64828U 25151N   25328.35930610  .00003583  00000+0  49835-3 0  9999
2 64828  51.9033  33.8547 0004629 282.8793  77.1652 14.79974904 19889
KUIPER-00083            
1 64829U 25151P   25328.21631004 -.00000972  00000+0 -98160-4 0  9997
2 64829  51.9028  41.9870 0010267 252.1469 107.8374 14.79894094 20940
KUIPER-00084            
1 64830U 25151Q   25328.47551306  .00005621  00000+0  76565-3 0  9991
2 64830  51.9008  50.8231 0012102 221.7398 138.2642 14.79909764 19656
KUIPER-00085            
1 64831U 25151R   25328.46061551  .00003700  00000+0  51375-3 0  9997
2 64831  51.9052  33.4196 0007068 262.6649  97.3510 14.79963078 19894
KUIPER-00086            
1 64832U 25151S   25328.38274271  .00049034  00000+0  64229-2 0  9995
2 64832  51.9027  43.7581 0011039 269.4049  90.5648 14.79838010 19749
KUIPER-00087            
1 64833U 25151T   25328.46867932 -.00053478  00000+0 -70248-2 0  9994
2 64833  51.9008  25.8721 0000979 267.1816  92.9034 14.80034232 19992
KUIPER-00089            
1 64834U 25151U   25327.38047358  .00009051  00000+0  13113-2 0  9991
2 64834  51.9022  35.6580 0003473   3.7428 356.3559 14.76667246 19773
KUIPER-00090            
1 64835U 25151V   25328.50002315 -.00046935  00000+0 -57072-2 0  9997
2 64835  51.8998  22.3557 0004446   6.0689 279.3982 14.83172693  4232
KUIPER-00091            
1 64836U 25151W   25328.39850824  .00005161  00000+0  70444-3 0  9994
2 64836  51.9016  28.6903 0007540 305.3061  54.7195 14.79993255 19952
KUIPER-00092            
1 64837U 25151X   25328.45803852  .00012259  00000+0  16331-2 0  9991
2 64837  51.9020  35.9227 0006371 250.4374 109.5900 14.79949632 21075
KUIPER-00093            
1 64838U 25151Y   25328.45522946  .00005921  00000+0  80355-3 0  9990
2 64838  51.9005  38.4239 0013591 260.1278  99.8150 14.79964047 19828
KUIPER-00094            
1 64839U 25151Z   25328.45573300  .00009883  00000+0  72108-3 0  9999
2 64839  51.8913  26.3496 0004851 289.0006  71.0441 15.04250319 19997
KUIPER-00081            
1 65132U 25171A   25328.50002315 -.00009309  00000+0 -44955-3 0  9991
2 65132  51.8845 258.4991 0003629 146.3557 272.7337 15.17025025  2527
KUIPER-00088            
1 65133U 25171B   25328.50002315 -.00046440  00000+0 -61093-2 0  9990
2 65133  51.8997 270.4950 0008641 130.7423  37.7858 14.79870345  1305
KUIPER-00095            
1 65134U 25171C   25328.50002315 -.00479626  00000+0 -26098-1 0  9992
2 65134  51.8801 259.4352 0006646 127.6998 131.8692 15.16252614  3059
KUIPER-00096            
1 65135U 25171D   25328.50002315 -.01467991  00000+0 -15635+0 0  9999
2 65135  51.8931 263.5734 0011873 152.5219 218.2750 14.91603636  4518
KUIPER-00097            
1 65136U 25171E   25328.50002315 -.00045395  00000+0 -52784-2 0  9998
2 65136  51.8978 265.9538 0009958 151.5782   4.0651 14.84963774  5531
KUIPER-00098            
1 65137U 25171F   25328.05529417 -.00006859  00000+0 -87196-3 0  9994
2 65137  51.9017 270.2070 0006847 139.2827 220.8648 14.79886624 16521
KUIPER-00099            
1 65138U 25171G   25328.50002315 -.00920480  00000+0 -60689-1 0  9999
2 65138  51.8890 260.5495 0006886 167.8672 344.2049 15.09855553  5762
KUIPER-00100            
1 65139U 25171H   25328.50002315 -.01191538  00000+0 -64742-1 0  9999
2 65139  51.8846 259.4700 0002405 138.9360 163.7337 15.17021468  5321
KUIPER-00102            
1 65140U 25171J   25328.50002315 -.01012280  00000+0 -62555-1 0  9997
2 65140  51.8875 260.4901 0011703 145.4102 314.5453 15.12394830  3524
KUIPER-00103            
1 65141U 25171K   25328.08092263 -.00002924  00000+0 -35407-3 0  9993
2 65141  51.8996 277.5814 0006747 141.2426 218.9021 14.79964401 17078
KUIPER-00104            
1 65142U 25171L   25328.05215144  .00014269  00000+0  10633-2 0  9992
2 65142  51.8904 265.3154 0004199 154.2835 205.8347 15.03109711 17245
KUIPER-00105            
1 65143U 25171M   25328.25526060  .00005254  00000+0  71909-3 0  9995
2 65143  51.9006 271.8824 0013194 116.4797 243.7520 14.79812248 17172
KUIPER-00106            
1 65144U 25171N   25328.28680727  .00006797  00000+0  61728-3 0  9991
2 65144  51.8940 273.6530 0009986 107.4494 252.7568 14.96251568 17152
KUIPER-00107            
1 65145U 25171P   25328.50002315 -.01045879  00000+0 -55059-1 0  9993
2 65145  51.8846 258.5255 0006855 152.7281 195.9095 15.18170043  4885
KUIPER-00108            
1 65146U 25171Q   25328.50002315 -.00053395  00000+0 -64315-2 0  9991
2 65146  51.8981 265.7877 0008875 123.6592 227.9460 14.83603032  5087
KUIPER-00109            
1 65147U 25171R   25328.50002315 -.01165426  00000+0 -96229-1 0  9990
2 65147  51.8873 261.8942 0011741 145.7662  72.7646 15.01724799  3745
KUIPER-00110            
1 65148U 25171S   25328.24764876 -.00012062  00000+0 -15578-2 0  9994
2 65148  51.8980 274.0061 0011802 122.0003 238.2108 14.79825138 17131
KUIPER-00111            
1 65149U 25171T   25328.38157066 -.00117619  00000+0 -15783-1 0  9998
2 65149  51.8985 278.7289 0009736 131.2640 228.9162 14.79589760 17080
KUIPER-00112            
1 65150U 25171U   25328.50002315 -.01092264  00000+0 -95146-1 0  9990
2 65150  51.8956 261.7432 0009376 164.4744  37.1360 14.99527006  3582
KUIPER-00114            
1 65151U 25171V   25328.24433443  .00005897  00000+0  80109-3 0  9990
2 65151  51.9001 281.8852 0006708 115.0101 245.1559 14.79968412 17022
KUIPER-00115            
1 65152U 25171W   25328.04985140  .00000155  00000+0  49683-4 0  9990
2 65152  51.9013 275.2216 0010604 138.0692 222.1084 14.79950758 17108
KUIPER-00116            
1 65153U 25171X   25328.07825937 -.00001767  00000+0 -20216-3 0  9993
2 65153  51.9003 280.1443 0010582 106.3766 253.8361 14.79961791 17030
KUIPER-00118            
1 65154U 25171Y   25328.07548831  .00006215  00000+0  84294-3 0  9996
2 65154  51.9009 282.6080 0001881 121.4433 238.6713 14.79965359 17005
KUIPER-00119            
1 65155U 25171Z   25328.22420676  .00014866  00000+0  19734-2 0  9997
2 65155  51.8998 269.5441 0009285 129.6912 230.4870 14.79939728 17190
KUIPER-00120            
1 65762U 25217A   25328.50002315  .00031476  00000+0  31031-2 0  9999
2 65762  51.8926 158.6385 0015348 300.8134  78.5922 14.91664342  1302
KUIPER-00132            
1 65763U 25217B   25327.78379659  .00017240  00000+0  48012-3 0  9998
2 65763  51.8628 156.4018 0005264 309.4530  50.5990 15.36885888  9125
KUIPER-00133            
1 65764U 25217C   25328.50002315  .00010169  00000+0  10272-2 0  9991
2 65764  51.8924 158.5702 0010690 327.2033 226.0110 14.91510718  5894
KUIPER-00139            
1 65765U 25217D   25328.50002315 -.01021581  00000+0 -63903-1 0  9993
2 65765  51.8921 155.5979 0006373 311.0244 236.3459 15.11591008  5673
KUIPER-00142            
1 65766U 25217E   25327.74661553  .00031705  00000+0  84744-3 0  9998
2 65766  51.8659 156.1919 0002447 271.4539  88.6168 15.37792963  9127
KUIPER-00145            
1 65767U 25217F   25328.50002315 -.00200596  00000+0 -61393-2 0  9991
2 65767  51.8697 152.7352 0004761 284.8234 191.4464 15.34074567  5379
KUIPER-00147            
1 65768U 25217G   25328.50002315  .00020293  00000+0  77259-3 0  9993
2 65768  51.8678 153.3455 0008159 311.0793 203.3029 15.26689353  5789
KUIPER-00148            
1 65769U 25217H   25328.50002315 -.00396970  00000+0 -14848-1 0  9997
2 65769  51.8626 153.5679 0008709 329.1001  92.8346 15.28476956  5638
KUIPER-00150            
1 65770U 25217J   25328.50002315 -.00105583  00000+0 -83263-2 0  9995
2 65770  51.8834 156.8923 0008300 319.9809 211.1147 15.00765981  3675
KUIPER-00151            
1 65771U 25217K   25328.50002315 -.00023494  00000+0 -10120-2 0  9998
2 65771  51.8751 153.6442 0003528 266.5874 149.9903 15.21729545  5737
KUIPER-00152            
1 65772U 25217L   25328.10961489  .00058822  00000+0  15191-2 0  9995
2 65772  51.8705 154.1357 0001951 315.8985  44.1846 15.38566872  9182
KUIPER-00153            
1 65773U 25217M   25327.91253642  .00008626  00000+0  53130-3 0  9992
2 65773  51.8754 159.5199 0011688 313.4560  46.5443 15.10669825  9092
KUIPER-00155            
1 65774U 25217N   25327.78088143  .00028947  00000+0  80138-3 0  9996
2 65774  51.8656 156.3917 0005820 285.0730  74.9612 15.36739451  9129
KUIPER-00156            
1 65775U 25217P   25327.79305282  .00045754  00000+0  11932-2 0  9994
2 65775  51.8705 155.7591 0003541 233.1761 126.8902 15.38376793  9130
KUIPER-00158            
1 65776U 25217Q   25328.50002315 -.00544522  00000+0 -29311-1 0  9994
2 65776  51.8751 154.4802 0004401 267.1968 107.5705 15.16567852  4434
KUIPER-00163            
1 65777U 25217R   25328.50002315 -.00974542  00000+0 -65364-1 0  9992
2 65777  51.8751 155.6141 0010062 325.7307 126.6172 15.09365111  2953
